{"fetched_at":"2026-07-22T07:09:58.877Z","source":"https://celestrak.org/NORAD/elements/gp.php?NAME=PLEIADES&FORMAT=JSON","constellation":"pleiades","records":[{"OBJECT_NAME":"PLEIADES 1A","OBJECT_ID":"2011-076F","EPOCH":"2026-07-21T15:37:18.775200","CLASSIFICATION_TYPE":"U","MEAN_MOTION":14.58549688,"ECCENTRICITY":0.00015964,"INCLINATION":98.196,"RA_OF_ASC_NODE":277.2886,"ARG_OF_PERICENTER":78.0079,"MEAN_ANOMALY":80.2641,"EPHEMERIS_TYPE":0,"NORAD_CAT_ID":38012,"ELEMENT_SET_NO":999,"REV_AT_EPOCH":77701,"BSTAR":0.000088431542,"MEAN_MOTION_DOT":0.00000365,"MEAN_MOTION_DDOT":0},{"OBJECT_NAME":"PLEIADES 1B","OBJECT_ID":"2012-068A","EPOCH":"2026-07-21T14:04:07.483872","CLASSIFICATION_TYPE":"U","MEAN_MOTION":14.58536997,"ECCENTRICITY":0.00014924,"INCLINATION":98.1931,"RA_OF_ASC_NODE":277.1619,"ARG_OF_PERICENTER":78.6878,"MEAN_ANOMALY":281.4489,"EPHEMERIS_TYPE":0,"NORAD_CAT_ID":39019,"ELEMENT_SET_NO":999,"REV_AT_EPOCH":72586,"BSTAR":0.000075782571,"MEAN_MOTION_DOT":0.00000306,"MEAN_MOTION_DDOT":0}]}
